{
  "type": "FeatureCollection",
  "features": [
    {
      "type": "Feature",
      "properties": {
        "norad_id": 41581,
        "name": "INTELSAT 31 (IS-31)",
        "group": "intelsat",
        "lat": -0.024166458250226477,
        "lon": -138.6851381525091,
        "alt_km": 35777.65507197624,
        "timestamp": "2025-12-13T15:35:11.783016+00:00",
        "meta_object_name": "INTELSAT 31 (IS-31)",
        "meta_object_id": "2016-035A",
        "meta_epoch": "2025-12-12T21:35:22.164576",
        "meta_mean_motion": 1.00271383,
        "meta_eccentricity": 0.00020554,
        "meta_inclination": 0.0183,
        "meta_ra_of_asc_node": 268.2699,
        "meta_arg_of_pericenter": 304.2994,
        "meta_mean_anomaly": 98.0553,
        "meta_ephemeris_type": 0,
        "meta_classification_type": "U",
        "meta_norad_cat_id": 41581,
        "meta_element_set_no": 999,
        "meta_rev_at_epoch": 3481,
        "meta_bstar": 0,
        "meta_mean_motion_dot": -1.38e-06,
        "meta_mean_motion_ddot": 0,
        "tle_line1": "1 41581U 16035A   25346.89956209 -.00000138  00000+0  00000+0 0  9993",
        "tle_line2": "2 41581   0.0183 268.2699 0002055 304.2994  98.0553  1.00271383 34819"
      },
      "geometry": {
        "type": "Point",
        "coordinates": [
          -138.6851381525091,
          -0.024166458250226477
        ]
      }
    },
    {
      "type": "Feature",
      "properties": {
        "norad_id": 41747,
        "name": "INTELSAT 36 (IS-36)",
        "group": "intelsat",
        "lat": 0.015288060683389823,
        "lon": 24.866586001716588,
        "alt_km": 35782.68750640736,
        "timestamp": "2025-12-13T15:35:11.783028+00:00",
        "meta_object_name": "INTELSAT 36 (IS-36)",
        "meta_object_id": "2016-053A",
        "meta_epoch": "2025-12-12T20:39:14.930208",
        "meta_mean_motion": 1.00270684,
        "meta_eccentricity": 0.00015547,
        "meta_inclination": 0.0128,
        "meta_ra_of_asc_node": 7.6743,
        "meta_arg_of_pericenter": 321.5559,
        "meta_mean_anomaly": 130.8681,
        "meta_ephemeris_type": 0,
        "meta_classification_type": "U",
        "meta_norad_cat_id": 41747,
        "meta_element_set_no": 999,
        "meta_rev_at_epoch": 3408,
        "meta_bstar": 0,
        "meta_mean_motion_dot": -1.2e-07,
        "meta_mean_motion_ddot": 0,
        "tle_line1": "1 41747U 16053A   25346.86058947 -.00000012  00000+0  00000+0 0  9997",
        "tle_line2": "2 41747   0.0128   7.6743 0001554 321.5559 130.8681  1.00270684 34088"
      },
      "geometry": {
        "type": "Point",
        "coordinates": [
          24.866586001716588,
          0.015288060683389823
        ]
      }
    },
    {
      "type": "Feature",
      "properties": {
        "norad_id": 41945,
        "name": "INTELSAT 32E (IS-32E)",
        "group": "intelsat",
        "lat": -0.023392103244863797,
        "lon": -86.8117314829022,
        "alt_km": 35785.629608315416,
        "timestamp": "2025-12-13T15:35:11.783039+00:00",
        "meta_object_name": "INTELSAT 32E (IS-32E)",
        "meta_object_id": "2017-007B",
        "meta_epoch": "2025-12-12T11:33:44.679168",
        "meta_mean_motion": 1.00273861,
        "meta_eccentricity": 3.861e-05,
        "meta_inclination": 0.0354,
        "meta_ra_of_asc_node": 82.6036,
        "meta_arg_of_pericenter": 280.6351,
        "meta_mean_anomaly": 208.4399,
        "meta_ephemeris_type": 0,
        "meta_classification_type": "U",
        "meta_norad_cat_id": 41945,
        "meta_element_set_no": 999,
        "meta_rev_at_epoch": 3235,
        "meta_bstar": 0,
        "meta_mean_motion_dot": -2.58e-06,
        "meta_mean_motion_ddot": 0,
        "tle_line1": "1 41945U 17007B   25346.48176712 -.00000258  00000+0  00000+0 0  9998",
        "tle_line2": "2 41945   0.0354  82.6036 0000386 280.6351 208.4399  1.00273861 32350"
      },
      "geometry": {
        "type": "Point",
        "coordinates": [
          -86.8117314829022,
          -0.023392103244863797
        ]
      }
    },
    {
      "type": "Feature",
      "properties": {
        "norad_id": 42818,
        "name": "INTELSAT 35E (IS-35E)",
        "group": "intelsat",
        "lat": -0.033939440428335764,
        "lon": -78.11631132691647,
        "alt_km": 35777.49572737314,
        "timestamp": "2025-12-13T15:35:11.783051+00:00",
        "meta_object_name": "INTELSAT 35E (IS-35E)",
        "meta_object_id": "2017-041A",
        "meta_epoch": "2025-12-12T23:35:21.435072",
        "meta_mean_motion": 1.00273324,
        "meta_eccentricity": 0.00020745,
        "meta_inclination": 0.0188,
        "meta_ra_of_asc_node": 9.0506,
        "meta_arg_of_pericenter": 252.2243,
        "meta_mean_anomaly": 139.988,
        "meta_ephemeris_type": 0,
        "meta_classification_type": "U",
        "meta_norad_cat_id": 42818,
        "meta_element_set_no": 999,
        "meta_rev_at_epoch": 3094,
        "meta_bstar": 0,
        "meta_mean_motion_dot": -2.25e-06,
        "meta_mean_motion_ddot": 0,
        "tle_line1": "1 42818U 17041A   25346.98288698 -.00000225  00000+0  00000+0 0  9992",
        "tle_line2": "2 42818   0.0188   9.0506 0002074 252.2243 139.9880  1.00273324 30941"
      },
      "geometry": {
        "type": "Point",
        "coordinates": [
          -78.11631132691647,
          -0.033939440428335764
        ]
      }
    },
    {
      "type": "Feature",
      "properties": {
        "norad_id": 42950,
        "name": "INTELSAT 37E (IS-37E)",
        "group": "intelsat",
        "lat": -0.02893093009137247,
        "lon": -61.60243488597805,
        "alt_km": 35776.32429738612,
        "timestamp": "2025-12-13T15:35:11.783062+00:00",
        "meta_object_name": "INTELSAT 37E (IS-37E)",
        "meta_object_id": "2017-059A",
        "meta_epoch": "2025-12-12T23:40:05.981376",
        "meta_mean_motion": 1.0027224,
        "meta_eccentricity": 0.00030153,
        "meta_inclination": 0.0186,
        "meta_ra_of_asc_node": 1.3227,
        "meta_arg_of_pericenter": 256.2051,
        "meta_mean_anomaly": 161.426,
        "meta_ephemeris_type": 0,
        "meta_classification_type": "U",
        "meta_norad_cat_id": 42950,
        "meta_element_set_no": 999,
        "meta_rev_at_epoch": 3019,
        "meta_bstar": 0,
        "meta_mean_motion_dot": -1.28e-06,
        "meta_mean_motion_ddot": 0,
        "tle_line1": "1 42950U 17059A   25346.98618034 -.00000128  00000+0  00000+0 0  9991",
        "tle_line2": "2 42950   0.0186   1.3227 0003015 256.2051 161.4260  1.00272240 30193"
      },
      "geometry": {
        "type": "Point",
        "coordinates": [
          -61.60243488597805,
          -0.02893093009137247
        ]
      }
    },
    {
      "type": "Feature",
      "properties": {
        "norad_id": 43632,
        "name": "AZERSPACE 2 (IS-38)",
        "group": "intelsat",
        "lat": 0.01509068662949937,
        "lon": 1.4969917172629095,
        "alt_km": 35786.54908751662,
        "timestamp": "2025-12-13T15:35:11.783073+00:00",
        "meta_object_name": "AZERSPACE 2 (IS-38)",
        "meta_object_id": "2018-074A",
        "meta_epoch": "2025-12-12T22:15:18.338976",
        "meta_mean_motion": 1.00271261,
        "meta_eccentricity": 0.00013581,
        "meta_inclination": 0.0136,
        "meta_ra_of_asc_node": 334.9865,
        "meta_arg_of_pericenter": 292.4817,
        "meta_mean_anomaly": 193.3376,
        "meta_ephemeris_type": 0,
        "meta_classification_type": "U",
        "meta_norad_cat_id": 43632,
        "meta_element_set_no": 999,
        "meta_rev_at_epoch": 2658,
        "meta_bstar": 0,
        "meta_mean_motion_dot": 1.49e-06,
        "meta_mean_motion_ddot": 0,
        "tle_line1": "1 43632U 18074A   25346.92729559  .00000149  00000+0  00000+0 0  9998",
        "tle_line2": "2 43632   0.0136 334.9865 0001358 292.4817 193.3376  1.00271261 26581"
      },
      "geometry": {
        "type": "Point",
        "coordinates": [
          1.4969917172629095,
          0.01509068662949937
        ]
      }
    },
    {
      "type": "Feature",
      "properties": {
        "norad_id": 43633,
        "name": "HORIZONS-3E",
        "group": "intelsat",
        "lat": -0.024475955685485364,
        "lon": 125.34957385970729,
        "alt_km": 35791.88851844124,
        "timestamp": "2025-12-13T15:35:11.783085+00:00",
        "meta_object_name": "HORIZONS-3E",
        "meta_object_id": "2018-074B",
        "meta_epoch": "2025-12-12T13:12:38.637216",
        "meta_mean_motion": 1.0026807,
        "meta_eccentricity": 0.00011684,
        "meta_inclination": 0.0433,
        "meta_ra_of_asc_node": 179.7044,
        "meta_arg_of_pericenter": 112.3484,
        "meta_mean_anomaly": 156.6007,
        "meta_ephemeris_type": 0,
        "meta_classification_type": "U",
        "meta_norad_cat_id": 43633,
        "meta_element_set_no": 999,
        "meta_rev_at_epoch": 2646,
        "meta_bstar": 0,
        "meta_mean_motion_dot": -2e-07,
        "meta_mean_motion_ddot": 0,
        "tle_line1": "1 43633U 18074B   25346.55044719 -.00000020  00000+0  00000+0 0  9995",
        "tle_line2": "2 43633   0.0433 179.7044 0001168 112.3484 156.6007  1.00268070 26469"
      },
      "geometry": {
        "type": "Point",
        "coordinates": [
          125.34957385970729,
          -0.024475955685485364
        ]
      }
    }
  ]
}